AT&T T-16               
1 44333U 19034A   26063.13702759 -.00000127  00000+0  00000+0 0  9994
2 44333   0.0251  99.8762 0000607  64.1156 306.3401  1.00270848 24580
EUTELSAT 7C             
1 44334U 19034B   26063.15834770  .00000035  00000+0  00000+0 0  9993
2 44334   0.0721 179.9036 0003304 150.2270 255.7504  1.00270230  5785
BEIDOU-3 IGSO-2         
1 44337U 19035A   26057.68879618 -.00000176  00000+0  00000+0 0  9995
2 44337  55.2338 159.8353 0038734 206.4752 153.7223  1.00247364 24561
COSMOS 2539             
1 44457U 19048A   26062.30363437  .00000066  00000+0  00000+0 0  9991
2 44457   0.0156 114.2840 0000871 217.6638 310.3911  1.00273779 24164
EDRS-C                  
1 44475U 19049A   26062.89992300 -.00000275  00000+0  00000+0 0  9996
2 44475   0.0294 121.7509 0001299 224.4287 281.9349  1.00272287 24153
INTELSAT 39 (IS-39)     
1 44476U 19049B   26063.09794074  .00000000  00000+0  00000+0 0  9993
2 44476   0.0248 154.4151 0000656 355.4372 109.2101  1.00269070 24070
AMOS-17                 
1 44479U 19050A   26063.16034104  .00000096  00000+0  00000+0 0  9992
2 44479   0.0481 289.9575 0001461  48.0592 258.5848  1.00270942 24133
AEHF-5 (USA 292)        
1 44481U 19051A   26063.16641990 -.00000270  00000+0  00000+0 0  9998
2 44481   1.5638 328.7072 0071580   3.2833 342.9235  1.00272193 24206
EUTELSAT 5 WEST B       
1 44624U 19067A   26063.15600767 -.00000055  00000+0  00000+0 0  9991
2 44624   0.0953 310.0726 0003201  41.6885 221.2732  1.00272586 23382
MEV-1                   
1 44625U 19067B   26057.83942429 -.00000160  00000+0  00000+0 0  9991
2 44625   0.8853 269.7923 0003215  58.4490 286.7172  1.00269845 60471
TJS-4                   
1 44637U 19070A   26063.17197498 -.00000182  00000+0  00000+0 0  9994
2 44637   0.0703 277.0113 0007451  95.5272 294.8003  1.00270368 23417
BEIDOU-3 IGSO-3         
1 44709U 19073A   26062.00508347 -.00000154  00000+0  00000+0 0  9996
2 44709  54.9806 282.0451 0040489 189.0046 170.9845  1.00269768 23393
TIBA-1                  
1 44800U 19080A   26063.05669711  .00000143  00000+0  00000+0 0  9992
2 44800   0.0568 339.2277 0001910   2.9223 235.5868  1.00275907 23002
INMARSAT GX5            
1 44801U 19080B   26063.15912771  .00000062  00000+0  00000+0 0  9991
2 44801   0.0494  16.3222 0001938 331.5435 242.3006  1.00271739  5739
JCSAT-18 (KACIFIC 1)    
1 44868U 19091A   26062.88655623 -.00000214  00000+0  00000+0 0  9995
2 44868   0.0441 310.4084 0000289  45.6726 274.7381  1.00272121 22956
ELEKTRO-L 3             
1 44903U 19095A   26063.10071410 -.00000108  00000+0  00000+0 0  9993
2 44903   0.0462 309.8649 0001616  23.2921 300.9071  1.00270485 22658
SHIJIAN-20 (SJ-20)      
1 44910U 19097A   26063.10080076 -.00000068  00000+0  00000+0 0  9996
2 44910   4.6489  76.3530 0000342  51.7554 146.3185  1.00081681 22648
