[{"OBJECT_NAME":"AT&T T-16","OBJECT_ID":"2019-034A","EPOCH":"2026-03-04T03:17:19.183776","MEAN_MOTION":1.00270848,"ECCENTRICITY":6.07e-5,"INCLINATION":0.0251,"RA_OF_ASC_NODE":99.8762,"ARG_OF_PERICENTER":64.1156,"MEAN_ANOMALY":306.3401,"EPHEMERIS_TYPE":0,"CLASSIFICATION_TYPE":"U","NORAD_CAT_ID":44333,"ELEMENT_SET_NO":999,"REV_AT_EPOCH":2458,"BSTAR":0,"MEAN_MOTION_DOT":-1.27e-6,"MEAN_MOTION_DDOT":0},{"OBJECT_NAME":"EUTELSAT 7C","OBJECT_ID":"2019-034B","EPOCH":"2026-03-04T03:48:01.241280","MEAN_MOTION":1.0027023,"ECCENTRICITY":0.0003304,"INCLINATION":0.0721,"RA_OF_ASC_NODE":179.9036,"ARG_OF_PERICENTER":150.227,"MEAN_ANOMALY":255.7504,"EPHEMERIS_TYPE":0,"CLASSIFICATION_TYPE":"U","NORAD_CAT_ID":44334,"ELEMENT_SET_NO":999,"REV_AT_EPOCH":578,"BSTAR":0,"MEAN_MOTION_DOT":3.5e-7,"MEAN_MOTION_DDOT":0},{"OBJECT_NAME":"BEIDOU-3 IGSO-2","OBJECT_ID":"2019-035A","EPOCH":"2026-02-26T16:31:51.989952","MEAN_MOTION":1.00247364,"ECCENTRICITY":0.00387345,"INCLINATION":55.2338,"RA_OF_ASC_NODE":159.8353,"ARG_OF_PERICENTER":206.4752,"MEAN_ANOMALY":153.7223,"EPHEMERIS_TYPE":0,"CLASSIFICATION_TYPE":"U","NORAD_CAT_ID":44337,"ELEMENT_SET_NO":999,"REV_AT_EPOCH":2456,"BSTAR":0,"MEAN_MOTION_DOT":-1.76e-6,"MEAN_MOTION_DDOT":0},{"OBJECT_NAME":"COSMOS 2539","OBJECT_ID":"2019-048A","EPOCH":"2026-03-03T07:17:14.009568","MEAN_MOTION":1.00273779,"ECCENTRICITY":8.71e-5,"INCLINATION":0.0156,"RA_OF_ASC_NODE":114.284,"ARG_OF_PERICENTER":217.6638,"MEAN_ANOMALY":310.3911,"EPHEMERIS_TYPE":0,"CLASSIFICATION_TYPE":"U","NORAD_CAT_ID":44457,"ELEMENT_SET_NO":999,"REV_AT_EPOCH":2416,"BSTAR":0,"MEAN_MOTION_DOT":6.6e-7,"MEAN_MOTION_DDOT":0},{"OBJECT_NAME":"EDRS-C","OBJECT_ID":"2019-049A","EPOCH":"2026-03-03T21:35:53.347200","MEAN_MOTION":1.00272287,"ECCENTRICITY":0.0001299,"INCLINATION":0.0294,"RA_OF_ASC_NODE":121.7509,"ARG_OF_PERICENTER":224.4287,"MEAN_ANOMALY":281.9349,"EPHEMERIS_TYPE":0,"CLASSIFICATION_TYPE":"U","NORAD_CAT_ID":44475,"ELEMENT_SET_NO":999,"REV_AT_EPOCH":2415,"BSTAR":0,"MEAN_MOTION_DOT":-2.75e-6,"MEAN_MOTION_DDOT":0},{"OBJECT_NAME":"INTELSAT 39 (IS-39)","OBJECT_ID":"2019-049B","EPOCH":"2026-03-04T02:21:02.079936","MEAN_MOTION":1.0026907,"ECCENTRICITY":6.56e-5,"INCLINATION":0.0248,"RA_OF_ASC_NODE":154.4151,"ARG_OF_PERICENTER":355.4372,"MEAN_ANOMALY":109.2101,"EPHEMERIS_TYPE":0,"CLASSIFICATION_TYPE":"U","NORAD_CAT_ID":44476,"ELEMENT_SET_NO":999,"REV_AT_EPOCH":2407,"BSTAR":0,"MEAN_MOTION_DOT":0,"MEAN_MOTION_DDOT":0},{"OBJECT_NAME":"AMOS-17","OBJECT_ID":"2019-050A","EPOCH":"2026-03-04T03:50:53.465856","MEAN_MOTION":1.00270942,"ECCENTRICITY":0.0001461,"INCLINATION":0.0481,"RA_OF_ASC_NODE":289.9575,"ARG_OF_PERICENTER":48.0592,"MEAN_ANOMALY":258.5848,"EPHEMERIS_TYPE":0,"CLASSIFICATION_TYPE":"U","NORAD_CAT_ID":44479,"ELEMENT_SET_NO":999,"REV_AT_EPOCH":2413,"BSTAR":0,"MEAN_MOTION_DOT":9.6e-7,"MEAN_MOTION_DDOT":0},{"OBJECT_NAME":"AEHF-5 (USA 292)","OBJECT_ID":"2019-051A","EPOCH":"2026-03-04T03:59:38.679360","MEAN_MOTION":1.00272193,"ECCENTRICITY":0.007158,"INCLINATION":1.5638,"RA_OF_ASC_NODE":328.7072,"ARG_OF_PERICENTER":3.2833,"MEAN_ANOMALY":342.9235,"EPHEMERIS_TYPE":0,"CLASSIFICATION_TYPE":"U","NORAD_CAT_ID":44481,"ELEMENT_SET_NO":999,"REV_AT_EPOCH":2420,"BSTAR":0,"MEAN_MOTION_DOT":-2.7e-6,"MEAN_MOTION_DDOT":0},{"OBJECT_NAME":"EUTELSAT 5 WEST B","OBJECT_ID":"2019-067A","EPOCH":"2026-03-04T03:44:39.062688","MEAN_MOTION":1.00272586,"ECCENTRICITY":0.0003201,"INCLINATION":0.0953,"RA_OF_ASC_NODE":310.0726,"ARG_OF_PERICENTER":41.6885,"MEAN_ANOMALY":221.2732,"EPHEMERIS_TYPE":0,"CLASSIFICATION_TYPE":"U","NORAD_CAT_ID":44624,"ELEMENT_SET_NO":999,"REV_AT_EPOCH":2338,"BSTAR":0,"MEAN_MOTION_DOT":-5.5e-7,"MEAN_MOTION_DDOT":0},{"OBJECT_NAME":"MEV-1","OBJECT_ID":"2019-067B","EPOCH":"2026-02-26T20:08:46.258656","MEAN_MOTION":1.00269845,"ECCENTRICITY":0.0003215,"INCLINATION":0.8853,"RA_OF_ASC_NODE":269.7923,"ARG_OF_PERICENTER":58.449,"MEAN_ANOMALY":286.7172,"EPHEMERIS_TYPE":0,"CLASSIFICATION_TYPE":"U","NORAD_CAT_ID":44625,"ELEMENT_SET_NO":999,"REV_AT_EPOCH":6047,"BSTAR":0,"MEAN_MOTION_DOT":-1.6e-6,"MEAN_MOTION_DDOT":0},{"OBJECT_NAME":"TJS-4","OBJECT_ID":"2019-070A","EPOCH":"2026-03-04T04:07:38.638272","MEAN_MOTION":1.00270368,"ECCENTRICITY":0.0007451,"INCLINATION":0.0703,"RA_OF_ASC_NODE":277.0113,"ARG_OF_PERICENTER":95.5272,"MEAN_ANOMALY":294.8003,"EPHEMERIS_TYPE":0,"CLASSIFICATION_TYPE":"U","NORAD_CAT_ID":44637,"ELEMENT_SET_NO":999,"REV_AT_EPOCH":2341,"BSTAR":0,"MEAN_MOTION_DOT":-1.82e-6,"MEAN_MOTION_DDOT":0},{"OBJECT_NAME":"BEIDOU-3 IGSO-3","OBJECT_ID":"2019-073A","EPOCH":"2026-03-03T00:07:19.211808","MEAN_MOTION":1.00269768,"ECCENTRICITY":0.00404892,"INCLINATION":54.9806,"RA_OF_ASC_NODE":282.0451,"ARG_OF_PERICENTER":189.0046,"MEAN_ANOMALY":170.9845,"EPHEMERIS_TYPE":0,"CLASSIFICATION_TYPE":"U","NORAD_CAT_ID":44709,"ELEMENT_SET_NO":999,"REV_AT_EPOCH":2339,"BSTAR":0,"MEAN_MOTION_DOT":-1.54e-6,"MEAN_MOTION_DDOT":0},{"OBJECT_NAME":"TIBA-1","OBJECT_ID":"2019-080A","EPOCH":"2026-03-04T01:21:38.630304","MEAN_MOTION":1.00275907,"ECCENTRICITY":0.000191,"INCLINATION":0.0568,"RA_OF_ASC_NODE":339.2277,"ARG_OF_PERICENTER":2.9223,"MEAN_ANOMALY":235.5868,"EPHEMERIS_TYPE":0,"CLASSIFICATION_TYPE":"U","NORAD_CAT_ID":44800,"ELEMENT_SET_NO":999,"REV_AT_EPOCH":2300,"BSTAR":0,"MEAN_MOTION_DOT":1.43e-6,"MEAN_MOTION_DDOT":0},{"OBJECT_NAME":"INMARSAT GX5","OBJECT_ID":"2019-080B","EPOCH":"2026-03-04T03:49:08.634144","MEAN_MOTION":1.00271739,"ECCENTRICITY":0.0001938,"INCLINATION":0.0494,"RA_OF_ASC_NODE":16.3222,"ARG_OF_PERICENTER":331.5435,"MEAN_ANOMALY":242.3006,"EPHEMERIS_TYPE":0,"CLASSIFICATION_TYPE":"U","NORAD_CAT_ID":44801,"ELEMENT_SET_NO":999,"REV_AT_EPOCH":573,"BSTAR":0,"MEAN_MOTION_DOT":6.2e-7,"MEAN_MOTION_DDOT":0},{"OBJECT_NAME":"JCSAT-18 (KACIFIC 1)","OBJECT_ID":"2019-091A","EPOCH":"2026-03-03T21:16:38.458272","MEAN_MOTION":1.00272121,"ECCENTRICITY":2.89e-5,"INCLINATION":0.0441,"RA_OF_ASC_NODE":310.4084,"ARG_OF_PERICENTER":45.6726,"MEAN_ANOMALY":274.7381,"EPHEMERIS_TYPE":0,"CLASSIFICATION_TYPE":"U","NORAD_CAT_ID":44868,"ELEMENT_SET_NO":999,"REV_AT_EPOCH":2295,"BSTAR":0,"MEAN_MOTION_DOT":-2.14e-6,"MEAN_MOTION_DDOT":0},{"OBJECT_NAME":"ELEKTRO-L 3","OBJECT_ID":"2019-095A","EPOCH":"2026-03-04T02:25:01.698240","MEAN_MOTION":1.00270485,"ECCENTRICITY":0.0001616,"INCLINATION":0.0462,"RA_OF_ASC_NODE":309.8649,"ARG_OF_PERICENTER":23.2921,"MEAN_ANOMALY":300.9071,"EPHEMERIS_TYPE":0,"CLASSIFICATION_TYPE":"U","NORAD_CAT_ID":44903,"ELEMENT_SET_NO":999,"REV_AT_EPOCH":2265,"BSTAR":0,"MEAN_MOTION_DOT":-1.08e-6,"MEAN_MOTION_DDOT":0},{"OBJECT_NAME":"SHIJIAN-20 (SJ-20)","OBJECT_ID":"2019-097A","EPOCH":"2026-03-04T02:25:09.185664","MEAN_MOTION":1.00081681,"ECCENTRICITY":3.42e-5,"INCLINATION":4.6489,"RA_OF_ASC_NODE":76.353,"ARG_OF_PERICENTER":51.7554,"MEAN_ANOMALY":146.3185,"EPHEMERIS_TYPE":0,"CLASSIFICATION_TYPE":"U","NORAD_CAT_ID":44910,"ELEMENT_SET_NO":999,"REV_AT_EPOCH":2264,"BSTAR":0,"MEAN_MOTION_DOT":-6.8e-7,"MEAN_MOTION_DDOT":0}]
